GLOBALSTAR M045         
1 25676U 99019A   24179.53513822 -.00000080  00000+0  12253-3 0  9990
2 25676  51.9953 236.0862 0000620 213.6872 293.3139 12.27040185150099
GLOBALSTAR M019         
1 25677U 99019B   24179.76742561 -.00000067  00000+0  23456-3 0  9992
2 25677  51.9892 340.8521 0000596  21.5627 351.6657 12.13856480142108
GLOBALSTAR M044         
1 25678U 99019C   24179.44392699 -.00000054  00000+0  42025-3 0  9990
2 25678  51.9959 248.7345 0006402  79.0912 293.5725 11.90234268129080
GLOBALSTAR M042         
1 25679U 99019D   24179.73835324 -.00000045  00000+0  43951-3 0  9999
2 25679  52.0034 331.5566 0002101 286.5206  87.6812 12.22063611141920
GLOBALSTAR M025         
1 25770U 99031A   24179.93263008 -.00000053  00000+0  44170-3 0  9994
2 25770  51.9812 259.9259 0001437 255.3435 276.6941 11.22550813441925
GLOBALSTAR M049         
1 25771U 99031B   24179.58455666 -.00000134  00000+0 -23931-2 0  9991
2 25771  51.9881 277.6746 0003299 143.6875 216.4146 11.12107598 77971
GLOBALSTAR M047         
1 25772U 99031C   24179.85819425 -.00000065  00000+0  12490-3 0  9990
2 25772  51.9855 307.8754 0016041  16.6083 343.5246 11.31920726430981
GLOBALSTAR M052         
1 25773U 99031D   24179.87184880 -.00000020  00000+0  15340-2 0  9990
2 25773  51.9892  30.6801 0002188 321.9488 135.6003 11.15051578438986
